{"fetched_at":"2026-07-24T07:06:11.280Z","source":"https://celestrak.org/NORAD/elements/gp.php?GROUP=qianfan&FORMAT=JSON","constellation":"qianfan","records":[{"OBJECT_NAME":"QIANFAN-193","OBJECT_ID":"2026-125L","EPOCH":"2026-07-23T12:04:41.755584","CLASSIFICATION_TYPE":"U","MEAN_MOTION":13.80521817,"ECCENTRICITY":0.0024348,"INCLINATION":88.9935,"RA_OF_ASC_NODE":276.3727,"ARG_OF_PERICENTER":64.6869,"MEAN_ANOMALY":295.6817,"EPHEMERIS_TYPE":0,"NORAD_CAT_ID":69411,"ELEMENT_SET_NO":999,"REV_AT_EPOCH":682,"BSTAR":-2.031,"MEAN_MOTION_DOT":-0.01990076,"MEAN_MOTION_DDOT":0},{"OBJECT_NAME":"QIANFAN-194","OBJECT_ID":"2026-125M","EPOCH":"2026-07-23T11:50:29.232960","CLASSIFICATION_TYPE":"U","MEAN_MOTION":13.82321652,"ECCENTRICITY":0.0024927,"INCLINATION":88.9944,"RA_OF_ASC_NODE":276.3706,"ARG_OF_PERICENTER":63.3816,"MEAN_ANOMALY":296.9902,"EPHEMERIS_TYPE":0,"NORAD_CAT_ID":69412,"ELEMENT_SET_NO":999,"REV_AT_EPOCH":681,"BSTAR":-2.0518,"MEAN_MOTION_DOT":-0.02067158,"MEAN_MOTION_DDOT":0},{"OBJECT_NAME":"QIANFAN-195","OBJECT_ID":"2026-125N","EPOCH":"2026-07-23T12:28:17.347008","CLASSIFICATION_TYPE":"U","MEAN_MOTION":13.83832949,"ECCENTRICITY":0.0022886,"INCLINATION":88.9937,"RA_OF_ASC_NODE":276.3559,"ARG_OF_PERICENTER":69.0292,"MEAN_ANOMALY":291.3324,"EPHEMERIS_TYPE":0,"NORAD_CAT_ID":69413,"ELEMENT_SET_NO":999,"REV_AT_EPOCH":683,"BSTAR":-1.7858,"MEAN_MOTION_DOT":-0.01838873,"MEAN_MOTION_DDOT":0},{"OBJECT_NAME":"QIANFAN-196","OBJECT_ID":"2026-125P","EPOCH":"2026-07-23T16:13:21.894240","CLASSIFICATION_TYPE":"U","MEAN_MOTION":13.82866523,"ECCENTRICITY":0.0027158,"INCLINATION":88.9943,"RA_OF_ASC_NODE":276.3414,"ARG_OF_PERICENTER":56.3671,"MEAN_ANOMALY":304.0083,"EPHEMERIS_TYPE":0,"NORAD_CAT_ID":69414,"ELEMENT_SET_NO":999,"REV_AT_EPOCH":685,"BSTAR":-2.0019,"MEAN_MOTION_DOT":-0.02038466,"MEAN_MOTION_DDOT":0},{"OBJECT_NAME":"QIANFAN-197","OBJECT_ID":"2026-125Q","EPOCH":"2026-07-23T12:17:51.835200","CLASSIFICATION_TYPE":"U","MEAN_MOTION":13.84621121,"ECCENTRICITY":0.001993,"INCLINATION":88.9935,"RA_OF_ASC_NODE":276.3553,"ARG_OF_PERICENTER":67.3941,"MEAN_ANOMALY":292.9335,"EPHEMERIS_TYPE":0,"NORAD_CAT_ID":69415,"ELEMENT_SET_NO":999,"REV_AT_EPOCH":682,"BSTAR":-1.7244,"MEAN_MOTION_DOT":-0.0180139,"MEAN_MOTION_DDOT":0},{"OBJECT_NAME":"QIANFAN-198","OBJECT_ID":"2026-125R","EPOCH":"2026-07-23T16:08:45.401280","CLASSIFICATION_TYPE":"U","MEAN_MOTION":13.84351102,"ECCENTRICITY":0.0022388,"INCLINATION":88.9942,"RA_OF_ASC_NODE":276.3431,"ARG_OF_PERICENTER":54.2162,"MEAN_ANOMALY":306.1085,"EPHEMERIS_TYPE":0,"NORAD_CAT_ID":69416,"ELEMENT_SET_NO":999,"REV_AT_EPOCH":685,"BSTAR":-1.9775,"MEAN_MOTION_DOT":-0.02061346,"MEAN_MOTION_DDOT":0},{"OBJECT_NAME":"QIANFAN-199","OBJECT_ID":"2026-125S","EPOCH":"2026-07-23T16:06:16.704288","CLASSIFICATION_TYPE":"U","MEAN_MOTION":13.88249112,"ECCENTRICITY":0.0015843,"INCLINATION":88.9936,"RA_OF_ASC_NODE":276.3242,"ARG_OF_PERICENTER":54.9104,"MEAN_ANOMALY":305.3551,"EPHEMERIS_TYPE":0,"NORAD_CAT_ID":69417,"ELEMENT_SET_NO":999,"REV_AT_EPOCH":686,"BSTAR":-1.8212,"MEAN_MOTION_DOT":-0.02029188,"MEAN_MOTION_DDOT":0},{"OBJECT_NAME":"QIANFAN-200","OBJECT_ID":"2026-125T","EPOCH":"2026-07-23T12:50:19.526208","CLASSIFICATION_TYPE":"U","MEAN_MOTION":13.79696904,"ECCENTRICITY":0.0025852,"INCLINATION":88.9941,"RA_OF_ASC_NODE":276.3765,"ARG_OF_PERICENTER":58.1994,"MEAN_ANOMALY":302.1686,"EPHEMERIS_TYPE":0,"NORAD_CAT_ID":69418,"ELEMENT_SET_NO":999,"REV_AT_EPOCH":682,"BSTAR":-2.1969,"MEAN_MOTION_DOT":-0.02114678,"MEAN_MOTION_DDOT":0},{"OBJECT_NAME":"QIANFAN-201","OBJECT_ID":"2026-153A","EPOCH":"2026-07-23T19:37:10.050816","CLASSIFICATION_TYPE":"U","MEAN_MOTION":14.22095948,"ECCENTRICITY":0.0008743,"INCLINATION":88.9931,"RA_OF_ASC_NODE":358.0553,"ARG_OF_PERICENTER":150.4209,"MEAN_ANOMALY":209.7479,"EPHEMERIS_TYPE":0,"NORAD_CAT_ID":69800,"ELEMENT_SET_NO":999,"REV_AT_EPOCH":277,"BSTAR":0.000084991,"MEAN_MOTION_DOT":0.00000203,"MEAN_MOTION_DDOT":0},{"OBJECT_NAME":"QIANFAN-202","OBJECT_ID":"2026-153B","EPOCH":"2026-07-23T20:33:45.036864","CLASSIFICATION_TYPE":"U","MEAN_MOTION":14.18845692,"ECCENTRICITY":0.0007713,"INCLINATION":88.9931,"RA_OF_ASC_NODE":358.0614,"ARG_OF_PERICENTER":149.8443,"MEAN_ANOMALY":210.3192,"EPHEMERIS_TYPE":0,"NORAD_CAT_ID":69801,"ELEMENT_SET_NO":999,"REV_AT_EPOCH":277,"BSTAR":0.000090562,"MEAN_MOTION_DOT":0.00000203,"MEAN_MOTION_DDOT":0},{"OBJECT_NAME":"QIANFAN-203","OBJECT_ID":"2026-153C","EPOCH":"2026-07-23T20:17:54.655008","CLASSIFICATION_TYPE":"U","MEAN_MOTION":14.19390057,"ECCENTRICITY":0.0008276,"INCLINATION":88.9931,"RA_OF_ASC_NODE":358.0597,"ARG_OF_PERICENTER":151.7119,"MEAN_ANOMALY":208.4521,"EPHEMERIS_TYPE":0,"NORAD_CAT_ID":69802,"ELEMENT_SET_NO":999,"REV_AT_EPOCH":277,"BSTAR":0.000070832,"MEAN_MOTION_DOT":0.00000163,"MEAN_MOTION_DDOT":0},{"OBJECT_NAME":"QIANFAN-204","OBJECT_ID":"2026-153D","EPOCH":"2026-07-23T20:20:34.223712","CLASSIFICATION_TYPE":"U","MEAN_MOTION":14.20115966,"ECCENTRICITY":0.0008683,"INCLINATION":88.9932,"RA_OF_ASC_NODE":358.06,"ARG_OF_PERICENTER":152.78,"MEAN_ANOMALY":207.3846,"EPHEMERIS_TYPE":0,"NORAD_CAT_ID":69803,"ELEMENT_SET_NO":999,"REV_AT_EPOCH":277,"BSTAR":0.000066764,"MEAN_MOTION_DOT":0.00000157,"MEAN_MOTION_DDOT":0},{"OBJECT_NAME":"QIANFAN-205","OBJECT_ID":"2026-153E","EPOCH":"2026-07-23T20:20:06.832320","CLASSIFICATION_TYPE":"U","MEAN_MOTION":14.18483184,"ECCENTRICITY":0.0008549,"INCLINATION":88.9931,"RA_OF_ASC_NODE":358.0596,"ARG_OF_PERICENTER":150.5336,"MEAN_ANOMALY":209.6336,"EPHEMERIS_TYPE":0,"NORAD_CAT_ID":69804,"ELEMENT_SET_NO":999,"REV_AT_EPOCH":277,"BSTAR":0.000055504,"MEAN_MOTION_DOT":0.00000129,"MEAN_MOTION_DDOT":0},{"OBJECT_NAME":"QIANFAN-206","OBJECT_ID":"2026-153F","EPOCH":"2026-07-23T19:59:57.346368","CLASSIFICATION_TYPE":"U","MEAN_MOTION":14.18783305,"ECCENTRICITY":0.0008744,"INCLINATION":88.9931,"RA_OF_ASC_NODE":358.0576,"ARG_OF_PERICENTER":151.7516,"MEAN_ANOMALY":208.415,"EPHEMERIS_TYPE":0,"NORAD_CAT_ID":69805,"ELEMENT_SET_NO":999,"REV_AT_EPOCH":277,"BSTAR":0.000048364,"MEAN_MOTION_DOT":0.00000115,"MEAN_MOTION_DDOT":0},{"OBJECT_NAME":"QIANFAN-207","OBJECT_ID":"2026-153G","EPOCH":"2026-07-23T19:52:42.948768","CLASSIFICATION_TYPE":"U","MEAN_MOTION":14.19832337,"ECCENTRICITY":0.0008334,"INCLINATION":88.9931,"RA_OF_ASC_NODE":358.057,"ARG_OF_PERICENTER":148.9875,"MEAN_ANOMALY":211.1809,"EPHEMERIS_TYPE":0,"NORAD_CAT_ID":69806,"ELEMENT_SET_NO":999,"REV_AT_EPOCH":277,"BSTAR":0.000086907,"MEAN_MOTION_DOT":0.00000199,"MEAN_MOTION_DDOT":0},{"OBJECT_NAME":"QIANFAN-208","OBJECT_ID":"2026-153H","EPOCH":"2026-07-23T21:16:36.408000","CLASSIFICATION_TYPE":"U","MEAN_MOTION":14.22847339,"ECCENTRICITY":0.0009413,"INCLINATION":88.9931,"RA_OF_ASC_NODE":358.0471,"ARG_OF_PERICENTER":154.0894,"MEAN_ANOMALY":206.077,"EPHEMERIS_TYPE":0,"NORAD_CAT_ID":69807,"ELEMENT_SET_NO":999,"REV_AT_EPOCH":278,"BSTAR":-0.000079554,"MEAN_MOTION_DOT":-0.00000164,"MEAN_MOTION_DDOT":0}]}
