QIANFAN-193             
1 69411U 26125L   26204.50326106 -.01990076  00000+0 -20310+1 0  9993
2 69411  88.9935 276.3727 0024348  64.6869 295.6817 13.80521817  6829
QIANFAN-194             
1 69412U 26125M   26204.49339390 -.02067158  00000+0 -20518+1 0  9998
2 69412  88.9944 276.3706 0024927  63.3816 296.9902 13.82321652  6813
QIANFAN-195             
1 69413U 26125N   26204.51964522 -.01838873  00000+0 -17858+1 0  9995
2 69413  88.9937 276.3559 0022886  69.0292 291.3324 13.83832949  6831
QIANFAN-196             
1 69414U 26125P   26204.67594785 -.02038466  00000+0 -20019+1 0  9997
2 69414  88.9943 276.3414 0027158  56.3671 304.0083 13.82866523  6856
QIANFAN-197             
1 69415U 26125Q   26204.51240550 -.01801390  00000+0 -17244+1 0  9998
2 69415  88.9935 276.3553 0019930  67.3941 292.9335 13.84621121  6820
QIANFAN-198             
1 69416U 26125R   26204.67274770 -.02061346  00000+0 -19775+1 0  9998
2 69416  88.9942 276.3431 0022388  54.2162 306.1085 13.84351102  6857
QIANFAN-199             
1 69417U 26125S   26204.67102667 -.02029188  00000+0 -18212+1 0  9997
2 69417  88.9936 276.3242 0015843  54.9104 305.3551 13.88249112  6863
QIANFAN-200             
1 69418U 26125T   26204.53494822 -.02114678  00000+0 -21969+1 0  9992
2 69418  88.9941 276.3765 0025852  58.1994 302.1686 13.79696904  6829
QIANFAN-201             
1 69800U 26153A   26204.81747744  .00000203  00000+0  84991-4 0  9995
2 69800  88.9931 358.0553 0008743 150.4209 209.7479 14.22095948  2773
QIANFAN-202             
1 69801U 26153B   26204.85677126  .00000203  00000+0  90562-4 0  9997
2 69801  88.9931 358.0614 0007713 149.8443 210.3192 14.18845692  2774
QIANFAN-203             
1 69802U 26153C   26204.84577147  .00000163  00000+0  70832-4 0  9992
2 69802  88.9931 358.0597 0008276 151.7119 208.4521 14.19390057  2777
QIANFAN-204             
1 69803U 26153D   26204.84761833  .00000157  00000+0  66764-4 0  9992
2 69803  88.9932 358.0600 0008683 152.7800 207.3846 14.20115966  2778
QIANFAN-205             
1 69804U 26153E   26204.84730130  .00000129  00000+0  55504-4 0  9998
2 69804  88.9931 358.0596 0008549 150.5336 209.6336 14.18483184  2779
QIANFAN-206             
1 69805U 26153F   26204.83330262  .00000115  00000+0  48364-4 0  9991
2 69805  88.9931 358.0576 0008744 151.7516 208.4150 14.18783305  2777
QIANFAN-207             
1 69806U 26153G   26204.82827487  .00000199  00000+0  86907-4 0  9998
2 69806  88.9931 358.0570 0008334 148.9875 211.1809 14.19832337  2776
QIANFAN-208             
1 69807U 26153H   26204.88653250 -.00000164  00000+0 -79554-4 0  9994
2 69807  88.9931 358.0471 0009413 154.0894 206.0770 14.22847339  2788
